SENTINEL-2A             
1 40697U 15028A   20147.09569562 -.00000004  00000-0  14982-4 0  9991
2 40697  98.5693 221.6506 0001191  88.6107 271.5217 14.30816565257268
AVUM R/B                
1 40698U 15028B   20146.85614827  .00000217  00000-0  13902-4 0  9996
2 40698  98.6414  79.0768 0256823  91.7729 271.2922 14.97723342268899
